[{"OBJECT_NAME":"BALKAN-1","OBJECT_ID":"2025-009C","EPOCH":"2026-03-09T22:57:33.536160","MEAN_MOTION":15.23563799,"ECCENTRICITY":0.00059641,"INCLINATION":97.3965,"RA_OF_ASC_NODE":149.5165,"ARG_OF_PERICENTER":335.3558,"MEAN_ANOMALY":24.7393,"EPHEMERIS_TYPE":0,"CLASSIFICATION_TYPE":"U","NORAD_CAT_ID":62611,"ELEMENT_SET_NO":999,"REV_AT_EPOCH":6364,"BSTAR":0.00042017416,"MEAN_MOTION_DOT":9.985e-5,"MEAN_MOTION_DDOT":0},{"OBJECT_NAME":"STARLINK-35738","OBJECT_ID":"2025-299Q","EPOCH":"2026-03-09T08:00:01.000224","MEAN_MOTION":15.40394704,"ECCENTRICITY":0.00013093,"INCLINATION":43.0009,"RA_OF_ASC_NODE":170.8346,"ARG_OF_PERICENTER":273.8044,"MEAN_ANOMALY":91.1615,"EPHEMERIS_TYPE":0,"CLASSIFICATION_TYPE":"U","NORAD_CAT_ID":67116,"ELEMENT_SET_NO":999,"REV_AT_EPOCH":592,"BSTAR":-0.056764549,"MEAN_MOTION_DOT":-0.02079847,"MEAN_MOTION_DDOT":0}]
